O3B MPOWER F1           
1 54755U 22174A   26190.65565882 -.00000011  00000+0  00000+0 0  9996
2 54755   0.0498 339.6693 0006585 139.6884 104.8474  5.00114767 66484
O3B MPOWER F2           
1 54756U 22174B   26190.69780830 -.00000011  00000+0  00000+0 0  9993
2 54756   0.0456 339.8469 0005807 123.3545 256.8637  5.00114946 66570
O3B MPOWER F4           
1 56367U 23059A   26190.76204337 -.00000011  00000+0  00000+0 0  9997
2 56367   0.0630 350.7780 0007723 121.4867 247.8176  5.00115417 59739
O3B MPOWER F3           
1 56368U 23059B   26190.59529657 -.00000011  00000+0  00000+0 0  9994
2 56368   0.0637 350.1260 0006678 115.1313 254.8169  5.00116386 55842
O3B MPOWER F5           
1 58346U 23175A   26190.69628737 -.00000011  00000+0  00000+0 0  9991
2 58346   0.0516   9.5906 0005434 116.7301 233.7298  5.00115872 50563
O3B MPOWER F6           
1 58347U 23175B   26190.59687198 -.00000011  00000+0  00000+0 0  9997
2 58347   0.0536   1.2892 0004439 104.9591 253.8009  5.00115781 49462
O3B MPOWER F7           
1 62362U 24244A   26189.86370577 -.00000010  00000+0  00000+0 0  9994
2 62362   0.0663 343.9045 0005960 119.0338 257.1290  5.00115302 27618
O3B MPOWER F8           
1 62363U 24244B   26190.43032470 -.00000011  00000+0  00000+0 0  9998
2 62363   0.0142 357.0968 0005802  99.8329 263.1367  5.00115005 21987
O3B MPOWER F9           
1 64866U 25153A   26190.56360449 -.00000011  00000+0  00000+0 0  9992
2 64866   0.0607   6.3526 0006660 120.6504 233.0583  5.00115652 20688
O3B MPOWER F10          
1 64867U 25153B   26189.73008395 -.00000010  00000+0  00000+0 0  9998
2 64867   0.0578   2.9426 0002280 245.0965 111.9372  5.00114920 23112
