{"fetched_at":"2026-07-10T07:59:13.111Z","source":"https://celestrak.org/NORAD/elements/gp.php?NAME=O3B&FORMAT=JSON","constellation":"o3b-mpower","records":[{"OBJECT_NAME":"O3B MPOWER F1","OBJECT_ID":"2022-174A","EPOCH":"2026-07-09T15:44:08.922048","CLASSIFICATION_TYPE":"U","MEAN_MOTION":5.00114767,"ECCENTRICITY":0.0006585,"INCLINATION":0.0498,"RA_OF_ASC_NODE":339.6693,"ARG_OF_PERICENTER":139.6884,"MEAN_ANOMALY":104.8474,"EPHEMERIS_TYPE":0,"NORAD_CAT_ID":54755,"ELEMENT_SET_NO":999,"REV_AT_EPOCH":6648,"BSTAR":0,"MEAN_MOTION_DOT":-1.1e-7,"MEAN_MOTION_DDOT":0},{"OBJECT_NAME":"O3B MPOWER F2","OBJECT_ID":"2022-174B","EPOCH":"2026-07-09T16:44:50.637120","CLASSIFICATION_TYPE":"U","MEAN_MOTION":5.00114946,"ECCENTRICITY":0.0005807,"INCLINATION":0.0456,"RA_OF_ASC_NODE":339.8469,"ARG_OF_PERICENTER":123.3545,"MEAN_ANOMALY":256.8637,"EPHEMERIS_TYPE":0,"NORAD_CAT_ID":54756,"ELEMENT_SET_NO":999,"REV_AT_EPOCH":6657,"BSTAR":0,"MEAN_MOTION_DOT":-1.1e-7,"MEAN_MOTION_DDOT":0},{"OBJECT_NAME":"O3B MPOWER F4","OBJECT_ID":"2023-059A","EPOCH":"2026-07-09T18:17:20.547168","CLASSIFICATION_TYPE":"U","MEAN_MOTION":5.00115417,"ECCENTRICITY":0.0007723,"INCLINATION":0.063,"RA_OF_ASC_NODE":350.778,"ARG_OF_PERICENTER":121.4867,"MEAN_ANOMALY":247.8176,"EPHEMERIS_TYPE":0,"NORAD_CAT_ID":56367,"ELEMENT_SET_NO":999,"REV_AT_EPOCH":5973,"BSTAR":0,"MEAN_MOTION_DOT":-1.1e-7,"MEAN_MOTION_DDOT":0},{"OBJECT_NAME":"O3B MPOWER F3","OBJECT_ID":"2023-059B","EPOCH":"2026-07-09T14:17:13.623648","CLASSIFICATION_TYPE":"U","MEAN_MOTION":5.00116386,"ECCENTRICITY":0.0006678,"INCLINATION":0.0637,"RA_OF_ASC_NODE":350.126,"ARG_OF_PERICENTER":115.1313,"MEAN_ANOMALY":254.8169,"EPHEMERIS_TYPE":0,"NORAD_CAT_ID":56368,"ELEMENT_SET_NO":999,"REV_AT_EPOCH":5584,"BSTAR":0,"MEAN_MOTION_DOT":-1.1e-7,"MEAN_MOTION_DDOT":0},{"OBJECT_NAME":"O3B MPOWER F5","OBJECT_ID":"2023-175A","EPOCH":"2026-07-09T16:42:39.228768","CLASSIFICATION_TYPE":"U","MEAN_MOTION":5.00115872,"ECCENTRICITY":0.0005434,"INCLINATION":0.0516,"RA_OF_ASC_NODE":9.5906,"ARG_OF_PERICENTER":116.7301,"MEAN_ANOMALY":233.7298,"EPHEMERIS_TYPE":0,"NORAD_CAT_ID":58346,"ELEMENT_SET_NO":999,"REV_AT_EPOCH":5056,"BSTAR":0,"MEAN_MOTION_DOT":-1.1e-7,"MEAN_MOTION_DDOT":0},{"OBJECT_NAME":"O3B MPOWER F6","OBJECT_ID":"2023-175B","EPOCH":"2026-07-09T14:19:29.739072","CLASSIFICATION_TYPE":"U","MEAN_MOTION":5.00115781,"ECCENTRICITY":0.0004439,"INCLINATION":0.0536,"RA_OF_ASC_NODE":1.2892,"ARG_OF_PERICENTER":104.9591,"MEAN_ANOMALY":253.8009,"EPHEMERIS_TYPE":0,"NORAD_CAT_ID":58347,"ELEMENT_SET_NO":999,"REV_AT_EPOCH":4946,"BSTAR":0,"MEAN_MOTION_DOT":-1.1e-7,"MEAN_MOTION_DDOT":0},{"OBJECT_NAME":"O3B MPOWER F7","OBJECT_ID":"2024-244A","EPOCH":"2026-07-08T20:43:44.178528","CLASSIFICATION_TYPE":"U","MEAN_MOTION":5.00115302,"ECCENTRICITY":0.00059609,"INCLINATION":0.0663,"RA_OF_ASC_NODE":343.9045,"ARG_OF_PERICENTER":119.0338,"MEAN_ANOMALY":257.129,"EPHEMERIS_TYPE":0,"NORAD_CAT_ID":62362,"ELEMENT_SET_NO":999,"REV_AT_EPOCH":2761,"BSTAR":0,"MEAN_MOTION_DOT":-1e-7,"MEAN_MOTION_DDOT":0},{"OBJECT_NAME":"O3B MPOWER F8","OBJECT_ID":"2024-244B","EPOCH":"2026-07-09T10:19:40.054080","CLASSIFICATION_TYPE":"U","MEAN_MOTION":5.00115005,"ECCENTRICITY":0.0005802,"INCLINATION":0.0142,"RA_OF_ASC_NODE":357.0968,"ARG_OF_PERICENTER":99.8329,"MEAN_ANOMALY":263.1367,"EPHEMERIS_TYPE":0,"NORAD_CAT_ID":62363,"ELEMENT_SET_NO":999,"REV_AT_EPOCH":2198,"BSTAR":0,"MEAN_MOTION_DOT":-1.1e-7,"MEAN_MOTION_DDOT":0},{"OBJECT_NAME":"O3B MPOWER F9","OBJECT_ID":"2025-153A","EPOCH":"2026-07-09T13:31:35.427936","CLASSIFICATION_TYPE":"U","MEAN_MOTION":5.00115652,"ECCENTRICITY":0.000666,"INCLINATION":0.0607,"RA_OF_ASC_NODE":6.3526,"ARG_OF_PERICENTER":120.6504,"MEAN_ANOMALY":233.0583,"EPHEMERIS_TYPE":0,"NORAD_CAT_ID":64866,"ELEMENT_SET_NO":999,"REV_AT_EPOCH":2068,"BSTAR":0,"MEAN_MOTION_DOT":-1.1e-7,"MEAN_MOTION_DDOT":0},{"OBJECT_NAME":"O3B MPOWER F10","OBJECT_ID":"2025-153B","EPOCH":"2026-07-08T17:31:19.253280","CLASSIFICATION_TYPE":"U","MEAN_MOTION":5.0011492,"ECCENTRICITY":0.00022808,"INCLINATION":0.0578,"RA_OF_ASC_NODE":2.9426,"ARG_OF_PERICENTER":245.0965,"MEAN_ANOMALY":111.9372,"EPHEMERIS_TYPE":0,"NORAD_CAT_ID":64867,"ELEMENT_SET_NO":999,"REV_AT_EPOCH":2311,"BSTAR":0,"MEAN_MOTION_DOT":-1e-7,"MEAN_MOTION_DDOT":0}]}
